{"fetched_at":"2026-03-29T16:36:15Z","count":15609,"tles":[{"name":"STARLINK-32458","line1":"1 61962U 24210D   26087.63827752  .00040373  00000+0  14681-2 0  9994","line2":"2 61962  43.0029  58.4735 0000987 283.6248  76.4494 15.27591742 77970","category":"Starlink"}]}